OBJECT_NAME,OBJECT_ID,EPOCH,MEAN_MOTION,ECCENTRICITY,INCLINATION,RA_OF_ASC_NODE,ARG_OF_PERICENTER,MEAN_ANOMALY,EPHEMERIS_TYPE,CLASSIFICATION_TYPE,NORAD_CAT_ID,ELEMENT_SET_NO,REV_AT_EPOCH,BSTAR,MEAN_MOTION_DOT,MEAN_MOTION_DDOT
HORS 2,2023-091AG,2026-07-15T18:26:01.024224,15.32571151,.0006784,97.5076,264.1989,353.0589,7.0557,0,U,57196,999,16890,.23965E-3,.7462E-4,0
A-SEANSAT-PG1,2023-091AH,2026-07-15T18:41:22.687584,15.37897216,.0005597,97.5068,266.9876,346.8619,13.2479,0,U,57197,999,16910,.2957E-3,.1094E-3,0
SITRO-AIS 10 (BURDAEV),2023-091AK,2026-07-15T20:31:07.863168,15.39643441,.0004792,97.5069,268.1021,338.4673,21.6371,0,U,57199,999,16917,.29537E-3,.11569E-3,0
SITRO-AIS 9 (SHCHUKIN),2023-091AM,2026-07-15T19:49:00.100704,15.39126663,.0005083,97.5067,267.7792,339.1530,20.9507,0,U,57201,999,16915,.29357E-3,.11305E-3,0
UTMN 2 (RS27S),2023-091AP,2026-07-15T19:01:11.542080,15.32710177,.0006659,97.5074,264.4212,348.0075,12.1007,0,U,57203,999,16892,.22544E-3,.7045E-4,0
SITRO-AIS 12 (SMIRENNIY),2023-091AQ,2026-07-15T19:27:38.274624,15.39422660,.0004633,97.5080,268.2492,331.3970,28.7021,0,U,57204,999,16917,.28982E-3,.11267E-3,0
SITRO-AIS 11 (SHEFFER),2023-091AU,2026-07-15T19:35:19.800096,15.39866033,.0004527,97.5079,268.5195,330.7125,29.3867,0,U,57208,999,16919,.29316E-3,.11566E-3,0
H2SAT (HEINRICH HERTZ),2023-093A,2026-07-15T18:30:15.797088,1.00270435,.000043,0.0250,98.8297,47.4193,65.6100,0,U,57213,999,1120,0,-.9E-7,0
KUZGTU 1 (RS47S),2023-091AV,2026-07-15T19:22:30.972288,15.30478450,.0010022,97.5050,261.5889,4.1355,355.9966,0,U,57217,999,16875,.22718E-3,.6626E-4,0
QIANKUN-1,2023-103B,2026-07-15T13:18:22.338144,16.07667897,.003542,96.1426,239.3970,132.2623,228.1677,0,U,57422,999,17185,.59919E-5,.4724E-4,.1649E-5
FENGYUN 3F,2023-111A,2026-07-15T20:45:30.709728,14.19943464,.0001262,98.6825,266.3376,76.0956,284.0361,0,U,57490,999,15293,.28259E-4,.17E-6,0
HJ-2F,2023-116A,2026-07-15T21:46:47.134272,15.22700373,.0006552,97.3846,201.6340,309.7208,50.3450,0,U,57519,999,16312,.17224E-3,.3946E-4,0
XRISM,2023-137A,2026-07-15T08:50:21.806016,15.12669567,.00078418,31.0008,177.0225,248.1772,111.8032,0,U,57800,999,15713,.10585006E-3,.1997E-4,0
METEOR-M2 4,2024-039A,2026-07-15T21:11:26.754720,14.22432183,.0008257,98.7026,155.8228,87.0604,273.1519,0,U,59051,999,12334,.12294E-4,-.16E-6,0
GRBBETA,2024-128C,2026-07-15T18:09:41.569632,15.06811071,.0036966,61.9898,116.0164,140.7889,219.5893,0,U,60237,999,11057,.13301E-3,.1799E-4,0
TRANSPORTER-11 OBJECT A,2024-149A,2026-07-15T19:20:50.427744,15.33345276,.0004908,97.3727,276.6541,115.2064,244.9688,0,U,60468,999,10644,.14767E-3,.468E-4,0
WARATAH SEED-1,2024-149B,2026-07-15T18:28:40.637856,15.36628368,.0003237,97.3686,277.3836,119.6422,240.5145,0,U,60469,999,10650,.2316E-3,.8203E-4,0
PHISAT 2,2024-149C,2026-07-15T19:12:45.607104,15.31431482,.0003209,97.3754,275.8632,123.5116,236.6432,0,U,60470,999,10637,.16569E-3,.4952E-4,0
LEMUR-2-TOMATOKECHUP,2024-149D,2026-07-15T18:22:37.814016,15.36590795,.0003312,97.3798,278.8952,121.5505,238.6063,0,U,60471,999,10655,.18874E-3,.666E-4,0
CONNECTA IOT-1,2024-149E,2026-07-15T17:30:51.312384,15.23744686,.0002837,97.3752,272.5414,141.4583,218.6857,0,U,60472,999,10614,.9703E-4,.2262E-4,0
LOPEN,2024-149F,2026-07-15T18:48:21.235104,15.40475365,.0002869,97.3777,280.3896,133.1322,227.0165,0,U,60473,999,10666,.23325E-3,.9369E-4,0
ROCK,2024-149G,2026-07-15T18:29:15.634176,15.40463335,.0003171,97.3772,280.3902,131.0586,229.0934,0,U,60474,999,10666,.23843E-3,.9576E-4,0
CONNECTA IOT-3,2024-149H,2026-07-15T03:50:13.143840,15.23755203,.00039167,97.3728,271.7253,142.9789,217.1719,0,U,60475,999,10606,.95300181E-4,.2221E-4,0
QUBE,2024-149J,2026-07-15T19:29:15.745056,15.48523095,.0003296,97.3777,283.8239,126.9574,233.1979,0,U,60476,999,10689,.28326E-3,.14992E-3,0
WREN-1,2024-149L,2026-07-15T18:00:04.827168,15.42641237,.0005277,97.3766,281.1837,149.0517,211.1042,0,U,60478,999,10672,.2842E-3,.12298E-3,0
TOMORROW-S1,2024-149M,2026-07-15T19:02:05.244000,15.33098763,.0004087,97.3747,277.1813,129.8397,230.3205,0,U,60479,999,10647,.14239E-3,.4474E-4,0
FLOCK 4BE-18,2024-149N,2026-07-15T18:11:05.020800,15.42723131,.0005087,97.3730,280.8033,142.8569,217.3031,0,U,60480,999,10671,.2033E-3,.8793E-4,0
FLOCK 4BE-7,2024-149P,2026-07-15T18:59:30.951744,15.41474589,.0004321,97.3758,280.1263,147.1516,213.0000,0,U,60481,999,10665,.37539E-3,.15655E-3,0
