HORS 2                  
1 57196U 23091AG  26196.76806741  .00007462  00000+0  23965-3 0  9992
2 57196  97.5076 264.1989 0006784 353.0589   7.0557 15.32571151168900
A-SEANSAT-PG1           
1 57197U 23091AH  26196.77873481  .00010940  00000+0  29570-3 0  9992
2 57197  97.5068 266.9876 0005597 346.8619  13.2479 15.37897216169105
SITRO-AIS 10 (BURDAEV)  
1 57199U 23091AK  26196.85495212  .00011569  00000+0  29537-3 0  9996
2 57199  97.5069 268.1021 0004792 338.4673  21.6371 15.39643441169179
SITRO-AIS 9 (SHCHUKIN)  
1 57201U 23091AM  26196.82569561  .00011305  00000+0  29357-3 0  9994
2 57201  97.5067 267.7792 0005083 339.1530  20.9507 15.39126663169158
UTMN 2 (RS27S)          
1 57203U 23091AP  26196.79249470  .00007045  00000+0  22544-3 0  9993
2 57203  97.5074 264.4212 0006659 348.0075  12.1007 15.32710177168926
SITRO-AIS 12 (SMIRENNIY)
1 57204U 23091AQ  26196.81085966  .00011267  00000+0  28982-3 0  9998
2 57204  97.5080 268.2492 0004633 331.3970  28.7021 15.39422660169176
SITRO-AIS 11 (SHEFFER)  
1 57208U 23091AU  26196.81620139  .00011566  00000+0  29316-3 0  9993
2 57208  97.5079 268.5195 0004527 330.7125  29.3867 15.39866033169191
H2SAT (HEINRICH HERTZ)  
1 57213U 23093A   26196.77101617 -.00000009  00000+0  00000+0 0  9997
2 57213   0.0250  98.8297 0000430  47.4193  65.6100  1.00270435 11209
KUZGTU 1 (RS47S)        
1 57217U 23091AV  26196.80730292  .00006626  00000+0  22718-3 0  9994
2 57217  97.5050 261.5889 0010022   4.1355 355.9966 15.30478450168759
QIANKUN-1               
1 57422U 23103B   26196.55442521  .00004724  16490-5  59919-5 0  9991
2 57422  96.1426 239.3970 0035420 132.2623 228.1677 16.07667897171858
FENGYUN 3F              
1 57490U 23111A   26196.86493877  .00000017  00000+0  28259-4 0  9996
2 57490  98.6825 266.3376 0001262  76.0956 284.0361 14.19943464152931
HJ-2F                   
1 57519U 23116A   26196.90748998  .00003946  00000+0  17224-3 0  9998
2 57519  97.3846 201.6340 0006552 309.7208  50.3450 15.22700373163129
XRISM                   
1 57800U 23137A   26196.36830794  .00001997  00000+0  10585-3 0  9997
2 57800  31.0008 177.0225 0007841 248.1772 111.8032 15.12669567157130
METEOR-M2 4             
1 59051U 24039A   26196.88294855 -.00000016  00000+0  12294-4 0  9990
2 59051  98.7026 155.8228 0008257  87.0604 273.1519 14.22432183123343
GRBBETA                 
1 60237U 24128C   26196.75673113  .00001799  00000+0  13301-3 0  9998
2 60237  61.9898 116.0164 0036966 140.7889 219.5893 15.06811071110578
TRANSPORTER-11 OBJECT A 
1 60468U 24149A   26196.80613921  .00004680  00000+0  14767-3 0  9993
2 60468  97.3727 276.6541 0004908 115.2064 244.9688 15.33345276106447
WARATAH SEED-1          
1 60469U 24149B   26196.76991479  .00008203  00000+0  23160-3 0  9998
2 60469  97.3686 277.3836 0003237 119.6422 240.5145 15.36628368106503
PHISAT 2                
1 60470U 24149C   26196.80052786  .00004952  00000+0  16569-3 0  9996
2 60470  97.3754 275.8632 0003209 123.5116 236.6432 15.31431482106375
LEMUR-2-TOMATOKECHUP    
1 60471U 24149D   26196.76571544  .00006660  00000+0  18874-3 0  9999
2 60471  97.3798 278.8952 0003312 121.5505 238.6063 15.36590795106557
CONNECTA IOT-1          
1 60472U 24149E   26196.72976056  .00002262  00000+0  97030-4 0  9999
2 60472  97.3752 272.5414 0002837 141.4583 218.6857 15.23744686106140
LOPEN                   
1 60473U 24149F   26196.78357911  .00009369  00000+0  23325-3 0  9999
2 60473  97.3777 280.3896 0002869 133.1322 227.0165 15.40475365106660
ROCK                    
1 60474U 24149G   26196.77031984  .00009576  00000+0  23843-3 0  9993
2 60474  97.3772 280.3902 0003171 131.0586 229.0934 15.40463335106660
CONNECTA IOT-3          
1 60475U 24149H   26196.15987435  .00002221  00000+0  95300-4 0  9995
2 60475  97.3728 271.7253 0003916 142.9789 217.1719 15.23755203106060
QUBE                    
1 60476U 24149J   26196.81198779  .00014992  00000+0  28326-3 0  9995
2 60476  97.3777 283.8239 0003296 126.9574 233.1979 15.48523095106894
WREN-1                  
1 60478U 24149L   26196.75005587  .00012298  00000+0  28420-3 0  9996
2 60478  97.3766 281.1837 0005277 149.0517 211.1042 15.42641237106725
TOMORROW-S1             
1 60479U 24149M   26196.79311625  .00004474  00000+0  14239-3 0  9994
2 60479  97.3747 277.1813 0004087 129.8397 230.3205 15.33098763106470
FLOCK 4BE-18            
1 60480U 24149N   26196.75769700  .00008793  00000+0  20330-3 0  9990
2 60480  97.3730 280.8033 0005087 142.8569 217.3031 15.42723131106719
FLOCK 4BE-7             
1 60481U 24149P   26196.79133046  .00015655  00000+0  37539-3 0  9997
2 60481  97.3758 280.1263 0004321 147.1516 213.0000 15.41474589106659
